[{"OBJECT_NAME":"DUBAISAT-2","OBJECT_ID":"2013-066D","EPOCH":"2026-03-09T22:07:51.982752","MEAN_MOTION":15.09361694,"ECCENTRICITY":0.00120191,"INCLINATION":97.4538,"RA_OF_ASC_NODE":61.7474,"ARG_OF_PERICENTER":22.7165,"MEAN_ANOMALY":337.4593,"EPHEMERIS_TYPE":0,"CLASSIFICATION_TYPE":"U","NORAD_CAT_ID":39419,"ELEMENT_SET_NO":999,"REV_AT_EPOCH":67141,"BSTAR":0.00034743884,"MEAN_MOTION_DOT":5.495e-5,"MEAN_MOTION_DDOT":0},{"OBJECT_NAME":"STARLINK-5712","OBJECT_ID":"2023-020AY","EPOCH":"2026-03-09T22:00:01.999584","MEAN_MOTION":15.05613237,"ECCENTRICITY":0.00018523,"INCLINATION":43.0014,"RA_OF_ASC_NODE":350.371,"ARG_OF_PERICENTER":260.8922,"MEAN_ANOMALY":117.6321,"EPHEMERIS_TYPE":0,"CLASSIFICATION_TYPE":"U","NORAD_CAT_ID":55615,"ELEMENT_SET_NO":999,"REV_AT_EPOCH":578,"BSTAR":0.00087221994,"MEAN_MOTION_DOT":0.00012606,"MEAN_MOTION_DDOT":0}]
